H1 CPF 01  gfz 2022 12 06 13  8402 tandemx   
H2 1003001  6202 36605    2022 12 06 12 59 42 2022 12 11 00 00 42   120 1 1  0 0 0
H9
10 0 59919  79902.000000  0    1153255.496   -293074.079  -6791977.646
10 0 59919  80022.000000  0    1537737.275  -1110874.673  -6629300.948
10 0 59919  80142.000000  0    1881387.929  -1915806.964  -6350988.940
10 0 59919  80262.000000  0    2178590.559  -2693147.594  -5961833.103
10 0 59919  80382.000000  0    2424773.585  -3428536.231  -5468546.063
10 0 59919  80502.000000  0    2616482.722  -4108241.467  -4879657.131
10 0 59919  80622.000000  0    2751430.189  -4719418.553  -4205373.838
10 0 59919  80742.000000  0    2828520.772  -5250355.150  -3457415.955
10 0 59919  80862.000000  0    2847854.421  -5690704.077  -2648821.466
10 0 59919  80982.000000  0    2810704.735  -6031694.551  -1793724.225
10 0 59919  81102.000000  0    2719473.990  -6266317.098   -907108.523
10 0 59919  81222.000000  0    2577623.335  -6389476.847     -4542.817
10 0 59919  81342.000000  0    2389579.998  -6398108.672    898099.955
10 0 59919  81462.000000  0    2160625.131  -6291253.547   1784928.916
10 0 59919  81582.000000  0    1896763.517  -6070092.146   2640325.471
10 0 59919  81702.000000  0    1604578.801  -5737933.535   3449226.729
10 0 59919  81822.000000  0    1291078.634  -5300161.697   4197396.685
10 0 59919  81942.000000  0     963533.466  -4764141.542   4871679.920
10 0 59919  82062.000000  0     629313.310  -4139087.618   5460234.693
10 0 59919  82182.000000  0     295725.165  -3435895.640   5952740.200
10 0 59919  82302.000000  0     -30143.147  -2666942.447   6340572.414
10 0 59919  82422.000000  0    -341570.626  -1845861.834   6616947.900
10 0 59919  82542.000000  0    -632338.882   -987299.900   6777036.393
10 0 59919  82662.000000  0    -896854.441   -106652.144   6818041.332
10 0 59919  82782.000000  0   -1130255.352    780213.563   6739246.040
10 0 59919  82902.000000  0   -1328500.124   1657242.635   6542025.112
10 0 59919  83022.000000  0   -1488437.566   2508483.665   6229821.930
10 0 59919  83142.000000  0   -1607857.206   3318378.721   5808092.345
10 0 59919  83262.000000  0   -1685519.037   4072049.353   5284214.354
10 0 59919  83382.000000  0   -1721161.861   4755573.969   4667365.952
10 0 59919  83502.000000  0   -1715490.996   5356252.254   3968369.724
10 0 59919  83622.000000  0   -1670144.077   5862849.617   3199506.405
10 0 59919  83742.000000  0   -1587637.491   6265816.393   2374300.283
10 0 59919  83862.000000  0   -1471293.124   6557477.469   1507279.332
10 0 59919  83982.000000  0   -1325145.804   6732186.559    613714.292
10 0 59919  84102.000000  0   -1153835.199   6786440.428   -290656.858
10 0 59919  84222.000000  0    -962485.050   6718952.467  -1189914.699
10 0 59919  84342.000000  0    -756571.327   6530679.412  -2068250.170
10 0 59919  84462.000000  0    -541784.778   6224799.725  -2910250.530
10 0 59919  84582.000000  0    -323891.472   5806649.252  -3701173.154
10 0 59919  84702.000000  0    -108593.850   5283616.973  -4427204.356
10 0 59919  84822.000000  0      98604.151   4665002.156  -5075698.493
10 0 59919  84942.000000  0     292524.955   3961837.491  -5635392.405
10 0 59919  85062.000000  0     468435.220   3186682.176  -6096592.783
10 0 59919  85182.000000  0     622150.697   2353389.793  -6451333.110
10 0 59919  85302.000000  0     750126.686   1476857.594  -6693499.316
10 0 59919  85422.000000  0     849532.918    572761.291  -6818924.895
10 0 59919  85542.000000  0     918311.197   -342721.451  -6825455.003
10 0 59919  85662.000000  0     955215.399  -1253195.022  -6712978.856
10 0 59919  85782.000000  0     959833.110  -2142331.598  -6483429.601
10 0 59919  85902.000000  0     932589.471  -2994155.295  -6140755.518
10 0 59919  86022.000000  0     874732.571  -3793325.290  -5690861.793
10 0 59919  86142.000000  0     788299.685  -4525411.511  -5141517.831
10 0 59919  86262.000000  0     676066.727  -5177156.458  -4502234.129
10 0 59919  86382.000000  0     541480.008  -5736721.494  -3784109.351
10 0 59920    102.000000  0     388571.720  -6193911.515  -2999646.621
10 0 59920    222.000000  0     221860.959  -6540372.050  -2162542.596
10 0 59920    342.000000  0      46242.361  -6769755.529  -1287451.439
10 0 59920    462.000000  0    -133135.641  -6877850.004   -389726.462
10 0 59920    582.000000  0    -310999.784  -6862666.098    514853.985
10 0 59920    702.000000  0    -482084.988  -6724480.672   1410370.368
10 0 59920    822.000000  0    -641268.095  -6465835.844   2281050.980
10 0 59920    942.000000  0    -783698.793  -6091491.493   3111559.536
10 0 59920   1062.000000  0    -904923.117  -5608331.467   3887274.110
10 0 59920   1182.000000  0   -1000997.928  -5025227.955   4594548.705
10 0 59920   1302.000000  0   -1068593.634  -4352869.326   5220954.964
10 0 59920   1422.000000  0   -1105081.404  -3603555.153   5755500.470
10 0 59920   1542.000000  0   -1108604.412  -2790960.868   6188819.553
10 0 59920   1662.000000  0   -1078130.090  -1929879.524   6513330.415
10 0 59920   1782.000000  0   -1013483.475  -1035949.108   6723360.829
10 0 59920   1902.000000  0    -915362.161   -125366.378   6815242.648
10 0 59920   2022.000000  0    -785331.963    785407.317   6787371.769
10 0 59920   2142.000000  0    -625801.824   1679943.234   6640234.801
10 0 59920   2262.000000  0    -439979.021   2542141.249   6376400.998
10 0 59920   2382.000000  0    -231805.780   3356519.536   6000480.099
10 0 59920   2502.000000  0      -5878.737   4108494.316   5519046.691
10 0 59920   2622.000000  0     232647.936   4784644.676   4940530.750
10 0 59920   2742.000000  0     478174.729   5372959.042   4275076.657
10 0 59920   2862.000000  0     724781.015   5863056.365   3534367.742
10 0 59920   2982.000000  0     966358.755   6246377.380   2731427.533
10 0 59920   3102.000000  0    1196756.145   6516349.922   1880389.202
10 0 59920   3222.000000  0    1409922.846   6668507.359    996240.384
10 0 59920   3342.000000  0    1600055.619   6700568.010     94552.557
10 0 59920   3462.000000  0    1761740.390   6612469.532   -808801.310
10 0 59920   3582.000000  0    1890086.404   6406359.146  -1697934.247
10 0 59920   3702.000000  0    1980849.838   6086540.519  -2557231.974
10 0 59920   3822.000000  0    2030543.736   5659378.200  -3371633.336
10 0 59920   3942.000000  0    2036531.469   5133161.740  -4126898.337
10 0 59920   4062.000000  0    1997101.398   4517932.876  -4809857.071
10 0 59920   4182.000000  0    1911520.965   3825282.414  -5408634.456
10 0 59920   4302.000000  0    1780070.351   3068122.920  -5912848.594
10 0 59920   4422.000000  0    1604054.396   2260441.131  -6313781.014
10 0 59920   4542.000000  0    1385793.180   1417036.237  -6604515.245
10 0 59920   4662.000000  0    1128592.897    553250.055  -6780045.323
10 0 59920   4782.000000  0     836695.830   -315308.646  -6837353.507
10 0 59920   4902.000000  0     515210.653  -1173040.962  -6775455.661
10 0 59920   5022.000000  0     170024.813  -2004630.565  -6595414.679
10 0 59920   5142.000000  0    -192299.624  -2795308.984  -6300325.032
10 0 59920   5262.000000  0    -564647.217  -3531114.068  -5895266.973
10 0 59920   5382.000000  0    -939484.168  -4199134.531  -5387227.211
10 0 59920   5502.000000  0   -1309005.477  -4787737.829  -4784990.188
10 0 59920   5622.000000  0   -1665292.913  -5286778.609  -4098997.888
10 0 59920   5742.000000  0   -2000480.599  -5687782.219  -3341178.775
10 0 59920   5862.000000  0   -2306924.434  -5984098.980  -2524748.184
10 0 59920   5982.000000  0   -2577371.862  -6171026.050  -1663982.867
10 0 59920   6102.000000  0   -2805128.123  -6245893.657   -773972.150
10 0 59920   6222.000000  0   -2984214.652  -6208111.578    129650.472
10 0 59920   6342.000000  0   -3109514.814  -6059173.199   1030988.801
10 0 59920   6462.000000  0   -3176903.327  -5802617.706   1914172.083
10 0 59920   6582.000000  0   -3183355.862  -5443950.404   2763643.865
10 0 59920   6702.000000  0   -3127035.746  -4990523.458   3564444.091
10 0 59920   6822.000000  0   -3007355.651  -4451380.960   4302478.765
10 0 59920   6942.000000  0   -2825013.376  -3837071.917   4964771.649
10 0 59920   7062.000000  0   -2582001.257  -3159435.889   5539693.105
10 0 59920   7182.000000  0   -2281587.728  -2431367.099   6017161.835
10 0 59920   7302.000000  0   -1928273.029  -1666563.895   6388817.020
10 0 59920   7422.000000  0   -1527719.611   -879267.107   6648160.529
10 0 59920   7542.000000  0   -1086658.547    -83990.815   6790663.758
10 0 59920   7662.000000  0    -612776.096    704744.790   6813839.864
10 0 59920   7782.000000  0    -114579.993   1472677.565   6717285.480
10 0 59920   7902.000000  0     398753.256   2206061.211   6502687.559
10 0 59920   8022.000000  0     917547.168   2891911.323   6173795.217
10 0 59920   8142.000000  0    1431806.681   3518235.639   5736358.316
10 0 59920   8262.000000  0    1931409.697   4074246.879   5198032.814
10 0 59920   8382.000000  0    2406306.444   4550553.826   4568253.071
10 0 59920   8502.000000  0    2846722.859   4939326.170   3858070.838
10 0 59920   8622.000000  0    3243361.920   5234428.958   3079965.408
10 0 59920   8742.000000  0    3587602.163   5431528.549   2247626.939
10 0 59920   8862.000000  0    3871686.730   5528160.966   1375710.207
10 0 59920   8982.000000  0    4088895.007   5523761.693    479571.960
10 0 59920   9102.000000  0    4233696.348   5419658.553   -425008.218
10 0 59920   9222.000000  0    4301880.290   5219023.568  -1322114.227
10 0 59920   9342.000000  0    4290660.914   4926789.338  -2195981.258
10 0 59920   9462.000000  0    4198751.786   4549530.558  -3031279.873
10 0 59920   9582.000000  0    4026409.608   4095314.107  -3813390.056
10 0 59920   9702.000000  0    3775446.080   3573521.238  -4528657.751
10 0 59920   9822.000000  0    3449209.998   2994648.521  -5164630.209
10 0 59920   9942.000000  0    3052538.524   2370091.521  -5710266.995
99
